OBJECT_NAME,OBJECT_ID,EPOCH,MEAN_MOTION,ECCENTRICITY,INCLINATION,RA_OF_ASC_NODE,ARG_OF_PERICENTER,MEAN_ANOMALY,EPHEMERIS_TYPE,CLASSIFICATION_TYPE,NORAD_CAT_ID,ELEMENT_SET_NO,REV_AT_EPOCH,BSTAR,MEAN_MOTION_DOT,MEAN_MOTION_DDOT
STARLINK-37892,2026-131H,2026-06-26T16:00:03.000096,15.80852680,.0001345,97.2839,198.5071,89.2956,203.8740,0,U,69485,999,353,-.15113E-3,-.29042E-3,0
STARLINK-37893,2026-131J,2026-06-26T16:00:03.000096,15.80832195,.0000918,97.2844,198.5094,97.4819,199.9615,0,U,69486,999,361,.11216E-3,.2141E-3,0
STARLINK-37842,2026-131K,2026-06-26T16:00:03.000096,15.80834120,.0001387,97.2845,198.5109,94.6775,207.0394,0,U,69487,999,353,.90551E-4,.17251E-3,0
STARLINK-37449,2026-131L,2026-06-26T16:00:03.000096,15.80846971,.0001046,97.2846,198.5128,99.0228,206.9688,0,U,69488,999,362,-.48864E-4,-.9504E-4,0
STARLINK-37831,2026-131M,2026-06-26T16:00:03.000096,15.80860117,.0000851,97.2849,198.5146,93.6079,216.6454,0,U,69489,999,219,-.13491E-3,-.25957E-3,0
STARLINK-37879,2026-131N,2026-06-26T16:00:03.000096,15.80846299,.0001037,97.2844,198.5166,94.5987,219.9394,0,U,69490,999,353,-.91094E-5,-.1889E-4,0
STARLINK-37856,2026-131P,2026-06-26T16:00:03.000096,15.80829000,.0001416,97.2841,198.4983,101.2012,169.8351,0,U,69491,999,359,.1524E-3,.29165E-3,0
STARLINK-37568,2026-131Q,2026-06-26T16:00:03.000096,15.80861029,.0001322,97.2846,198.5199,95.9511,227.1238,0,U,69492,999,362,-.15593E-3,-.29969E-3,0
STARLINK-37855,2026-131R,2026-06-26T16:00:03.000096,15.80833259,.0001338,97.2845,198.5057,93.3871,194.6959,0,U,69493,999,359,.17699E-3,.33918E-3,0
STARLINK-37854,2026-131S,2026-06-26T16:00:03.000096,15.80831724,.0001028,97.2843,198.5025,94.9402,186.4766,0,U,69494,999,359,.14627E-3,.27986E-3,0
STARLINK-37789,2026-131T,2026-06-26T16:00:03.000096,15.80884698,.0001066,97.2847,198.5243,119.9682,215.9010,0,U,69495,999,361,-.24209E-3,-.46412E-3,0
STARLINK-37839,2026-131U,2026-06-26T16:00:03.000096,15.80848495,.0001253,97.2846,198.5082,89.0963,206.2337,0,U,69496,999,359,-.10017E-3,-.19315E-3,0
STARLINK-37798,2026-131V,2026-06-26T16:00:03.000096,15.80838459,.0001301,97.2846,198.5265,90.9832,249.2139,0,U,69497,999,359,-.20487E-3,-.39248E-3,0
STARLINK-37853,2026-131W,2026-06-26T16:00:03.000096,15.80868559,.0000998,97.2840,198.5360,94.7579,266.7814,0,U,69498,999,359,-.29736E-3,-.56866E-3,0
STARLINK-37849,2026-131X,2026-06-26T16:00:03.000096,15.80872586,.0001267,97.2843,198.5339,99.9261,257.3367,0,U,69499,999,361,-.3188E-3,-.6094E-3,0
STARLINK-37835,2026-131Y,2026-06-26T16:00:03.000096,15.80852117,.0001276,97.2846,198.5301,94.5334,254.1961,0,U,69500,999,251,-.26681E-3,-.51035E-3,0
STARLINK-37843,2026-131Z,2026-06-26T16:00:03.000096,15.80820582,.0001352,97.2845,198.5330,84.2027,268.8063,0,U,69501,999,359,.23302E-3,.44731E-3,0
2026-132A,2026-132A,2026-06-26T16:48:38.301120,14.99060495,.0013183,97.6888,241.2505,234.4431,125.5564,0,U,69502,999,220,.97213E-4,.1122E-4,0
2026-132B,2026-132B,2026-06-26T16:47:23.070048,14.99145963,.0013086,97.6919,241.2575,236.5868,123.4104,0,U,69503,999,220,.74999E-4,.854E-5,0
BRO-22,2026-132C,2026-06-26T10:14:19.548096,14.99767387,.001472,97.6854,240.9885,249.7042,110.2600,0,U,69504,999,216,.62272E-4,.711E-5,0
2026-132D,2026-132D,2026-06-26T09:35:39.706368,15.04841655,.0016823,97.6874,241.0302,259.8012,100.1317,0,U,69505,999,216,.26669E-3,.3716E-4,0
VERTECS,2026-132E,2026-06-26T14:46:49.518624,15.00914914,.0013328,97.6884,241.2088,271.0631,88.9066,0,U,69506,999,218,.19937E-3,.2483E-4,0
2026-132F,2026-132F,2026-06-25T17:46:29.366688,15.02847044,.00140502,97.6810,240.3655,272.7666,87.1951,0,U,69507,999,205,.7049021E-4,.884E-5,0
STARLINK-37536,2026-133A,2026-06-26T16:00:03.000096,15.80884935,.0001112,53.1593,274.6036,71.5950,14.0355,0,U,69508,999,349,-.25461E-4,-.5723E-4,0
STARLINK-37341,2026-133B,2026-06-26T16:00:03.000096,15.80852753,.000147,53.1595,274.5747,83.5166,16.3590,0,U,69509,999,349,.26416E-3,.51702E-3,0
STARLINK-36536,2026-133C,2026-06-26T16:00:03.000096,15.80852032,.0000983,53.1595,274.5434,70.5458,44.4316,0,U,69510,999,343,.3782E-3,.74518E-3,0
STARLINK-37420,2026-133D,2026-06-26T16:00:03.000096,15.80869330,.0001217,53.1593,274.5019,81.0281,53.5393,0,U,69511,999,338,.18307E-3,.35576E-3,0
STARLINK-37511,2026-133E,2026-06-26T16:00:03.000096,15.80856482,.0000648,53.1592,274.5183,77.8746,49.1766,0,U,69512,999,338,.31728E-3,.62326E-3,0
STARLINK-37552,2026-133F,2026-06-26T16:00:03.000096,15.80852324,.0001457,53.1592,274.4713,60.2359,89.5362,0,U,69513,999,338,.20963E-3,.40831E-3,0
STARLINK-37607,2026-133G,2026-06-26T16:00:03.000096,15.80842808,.0000764,53.1593,274.4567,69.4778,87.0315,0,U,69514,999,338,.43584E-3,.86062E-3,0
