STARLINK-37892          
1 69485U 26131H   26177.66670139 -.00029042  00000+0 -15113-3 0  9998
2 69485  97.2839 198.5071 0001345  89.2956 203.8740 15.80852680  3533
STARLINK-37893          
1 69486U 26131J   26177.66670139  .00021410  00000+0  11216-3 0  9998
2 69486  97.2844 198.5094 0000918  97.4819 199.9615 15.80832195  3613
STARLINK-37842          
1 69487U 26131K   26177.66670139  .00017251  00000+0  90551-4 0  9997
2 69487  97.2845 198.5109 0001387  94.6775 207.0394 15.80834120  3539
STARLINK-37449          
1 69488U 26131L   26177.66670139 -.00009504  00000+0 -48864-4 0  9992
2 69488  97.2846 198.5128 0001046  99.0228 206.9688 15.80846971  3627
STARLINK-37831          
1 69489U 26131M   26177.66670139 -.00025957  00000+0 -13491-3 0  9990
2 69489  97.2849 198.5146 0000851  93.6079 216.6454 15.80860117  2196
STARLINK-37879          
1 69490U 26131N   26177.66670139 -.00001889  00000+0 -91094-5 0  9997
2 69490  97.2844 198.5166 0001037  94.5987 219.9394 15.80846299  3533
STARLINK-37856          
1 69491U 26131P   26177.66670139  .00029165  00000+0  15240-3 0  9990
2 69491  97.2841 198.4983 0001416 101.2012 169.8351 15.80829000  3596
STARLINK-37568          
1 69492U 26131Q   26177.66670139 -.00029969  00000+0 -15593-3 0  9996
2 69492  97.2846 198.5199 0001322  95.9511 227.1238 15.80861029  3624
STARLINK-37855          
1 69493U 26131R   26177.66670139  .00033918  00000+0  17699-3 0  9993
2 69493  97.2845 198.5057 0001338  93.3871 194.6959 15.80833259  3593
STARLINK-37854          
1 69494U 26131S   26177.66670139  .00027986  00000+0  14627-3 0  9990
2 69494  97.2843 198.5025 0001028  94.9402 186.4766 15.80831724  3590
STARLINK-37789          
1 69495U 26131T   26177.66670139 -.00046412  00000+0 -24209-3 0  9995
2 69495  97.2847 198.5243 0001066 119.9682 215.9010 15.80884698  3618
STARLINK-37839          
1 69496U 26131U   26177.66670139 -.00019315  00000+0 -10017-3 0  9990
2 69496  97.2846 198.5082 0001253  89.0963 206.2337 15.80848495  3593
STARLINK-37798          
1 69497U 26131V   26177.66670139 -.00039248  00000+0 -20487-3 0  9990
2 69497  97.2846 198.5265 0001301  90.9832 249.2139 15.80838459  3593
STARLINK-37853          
1 69498U 26131W   26177.66670139 -.00056866  00000+0 -29736-3 0  9992
2 69498  97.2840 198.5360 0000998  94.7579 266.7814 15.80868559  3593
STARLINK-37849          
1 69499U 26131X   26177.66670139 -.00060940  00000+0 -31880-3 0  9994
2 69499  97.2843 198.5339 0001267  99.9261 257.3367 15.80872586  3615
STARLINK-37835          
1 69500U 26131Y   26177.66670139 -.00051035  00000+0 -26681-3 0  9995
2 69500  97.2846 198.5301 0001276  94.5334 254.1961 15.80852117  2513
STARLINK-37843          
1 69501U 26131Z   26177.66670139  .00044731  00000+0  23302-3 0  9996
2 69501  97.2845 198.5330 0001352  84.2027 268.8063 15.80820582  3590
2026-132A               
1 69502U 26132A   26177.70044330  .00001122  00000+0  97213-4 0  9991
2 69502  97.6888 241.2505 0013183 234.4431 125.5564 14.99060495  2205
2026-132B               
1 69503U 26132B   26177.69957257  .00000854  00000+0  74999-4 0  9998
2 69503  97.6919 241.2575 0013086 236.5868 123.4104 14.99145963  2208
BRO-22                  
1 69504U 26132C   26177.42661514  .00000711  00000+0  62272-4 0  9991
2 69504  97.6854 240.9885 0014720 249.7042 110.2600 14.99767387  2163
2026-132D               
1 69505U 26132D   26177.39976512  .00003716  00000+0  26669-3 0  9992
2 69505  97.6874 241.0302 0016823 259.8012 100.1317 15.04841655  2168
VERTECS                 
1 69506U 26132E   26177.61585091  .00002483  00000+0  19937-3 0  9996
2 69506  97.6884 241.2088 0013328 271.0631  88.9066 15.00914914  2184
2026-132F               
1 69507U 26132F   26176.74061767  .00000884  00000+0  70490-4 0  9994
2 69507  97.6810 240.3655 0014050 272.7666  87.1951 15.02847044  2054
STARLINK-37536          
1 69508U 26133A   26177.66670139 -.00005723  00000+0 -25461-4 0  9994
2 69508  53.1593 274.6036 0001112  71.5950  14.0355 15.80884935  3491
STARLINK-37341          
1 69509U 26133B   26177.66670139  .00051702  00000+0  26416-3 0  9991
2 69509  53.1595 274.5747 0001470  83.5166  16.3590 15.80852753  3490
STARLINK-36536          
1 69510U 26133C   26177.66670139  .00074518  00000+0  37820-3 0  9994
2 69510  53.1595 274.5434 0000983  70.5458  44.4316 15.80852032  3435
STARLINK-37420          
1 69511U 26133D   26177.66670139  .00035576  00000+0  18307-3 0  9995
2 69511  53.1593 274.5019 0001217  81.0281  53.5393 15.80869330  3384
STARLINK-37511          
1 69512U 26133E   26177.66670139  .00062326  00000+0  31728-3 0  9991
2 69512  53.1592 274.5183 0000648  77.8746  49.1766 15.80856482  3381
STARLINK-37552          
1 69513U 26133F   26177.66670139  .00040831  00000+0  20963-3 0  9998
2 69513  53.1592 274.4713 0001457  60.2359  89.5362 15.80852324  3386
STARLINK-37607          
1 69514U 26133G   26177.66670139  .00086062  00000+0  43584-3 0  9999
2 69514  53.1593 274.4567 0000764  69.4778  87.0315 15.80842808  3388
